NORAD_CAT_ID,OBJECT_NAME,OBJECT_TYPE,EPOCH,MEAN_MOTION,ECCENTRICITY,INCLINATION,RA_OF_ASC_NODE,ARG_OF_PERICENTER,MEAN_ANOMALY,BSTAR,MEAN_MOTION_DOT,MEAN_MOTION_DDOT,TLE_LINE0,TLE_LINE1,TLE_LINE2,SEMIMAJOR_AXIS,PERIOD,APOGEE,PERIGEE,DECAYED
52632.0,STARLINK-3995,PAYLOAD,2024-01-17 18:07:33,15.08835842,0.0001338,53.217,179.3578,76.1514,283.9627,1.4694e-05,-5.4e-07,0.0,0 STARLINK-3995,1 52632U 22052AL  24017.75524451 -.00000054  00000-0  14694-4 0  9994,2 52632  53.2170 179.3578 0001338  76.1514 283.9627 15.08835842 93325,6917.893,95.438,540.684,538.832,0.0
52632.0,STARLINK-3995,PAYLOAD,2024-01-18 14:47:33,15.08840804,0.0001285,53.2173,175.4975,77.3242,282.7894,0.00011289,1.509e-05,0.0,0 STARLINK-3995,1 52632U 22052AL  24018.61636134  .00001509  00000-0  11289-3 0  9993,2 52632  53.2173 175.4975 0001285  77.3242 282.7894 15.08840804 93088,6917.878,95.438,540.632,538.854,0.0
52632.0,STARLINK-3995,PAYLOAD,2024-01-18 17:58:19,15.08845388,0.000129,53.2171,174.9017,82.0986,278.0152,0.00013147,1.805e-05,0.0,0 STARLINK-3995,1 52632U 22052AL  24018.74883833  .00001805  00000-0  13147-3 0  9991,2 52632  53.2171 174.9017 0001290  82.0986 278.0152 15.08845388 93471,6917.864,95.437,540.621,538.837,0.0
52632.0,STARLINK-3995,PAYLOAD,2024-01-19 14:38:20,15.08843779,0.0001509,53.2176,171.0373,72.7408,287.3749,9.3613e-05,1.202e-05,0.0,0 STARLINK-3995,1 52632U 22052AL  24019.60996129  .00001202  00000-0  93613-4 0  9998,2 52632  53.2176 171.0373 0001509  72.7408 287.3749 15.08843779 93238,6917.869,95.437,540.778,538.69,0.0
52632.0,STARLINK-3995,PAYLOAD,2024-01-19 19:24:29,15.08845614,0.0001652,53.2159,170.1442,59.0021,301.1133,0.00018396,2.641e-05,0.0,0 STARLINK-3995,1 52632U 22052AL  24019.80867781  .00002641  00000-0  18396-3 0  9993,2 52632  53.2159 170.1442 0001652  59.0021 301.1133 15.08845614 93630,6917.863,95.437,540.871,538.585,0.0
52632.0,STARLINK-3995,PAYLOAD,2024-01-20 14:29:07,15.08843693,0.0001561,53.2165,166.5703,110.6907,249.4252,-6.011e-05,-1.245e-05,0.0,0 STARLINK-3995,1 52632U 22052AL  24020.60356234 -.00001245  00000-0 -60110-4 0  9992,2 52632  53.2165 166.5703 0001561 110.6907 249.4252 15.08843693 93385,6917.869,95.437,540.814,538.654,0.0
52632.0,STARLINK-3995,PAYLOAD,2024-01-20 16:04:31,15.08838149,0.00018,53.2173,166.2796,61.5161,298.6012,-7.16e-06,-4.02e-06,0.0,0 STARLINK-3995,1 52632U 22052AL  24020.66980868 -.00000402  00000-0 -71600-5 0  9995,2 52632  53.2173 166.2796 0001800  61.5161 298.6012 15.08838149 93767,6917.886,95.438,540.996,538.506,0.0
52632.0,STARLINK-3995,PAYLOAD,2024-01-21 12:44:31,15.08845992,0.0001254,53.2175,162.4067,93.1005,267.0131,7.3242e-06,-1.71e-06,0.0,0 STARLINK-3995,1 52632U 22052AL  24021.53092035 -.00000171  00000-0  73242-5 0  9998,2 52632  53.2175 162.4067 0001254  93.1005 267.0131 15.08845992 93899,6917.862,95.437,540.595,538.86,0.0
52632.0,STARLINK-3995,PAYLOAD,2024-01-21 19:06:03,15.08848573,0.0001324,53.218,161.2171,108.783,251.3306,6.214e-05,7.01e-06,0.0,0 STARLINK-3995,1 52632U 22052AL  24021.79587595  .00000701  00000-0  62140-4 0  9998,2 52632  53.2180 161.2171 0001324 108.7830 251.3306 15.08848573 93567,6917.854,95.437,540.635,538.803,0.0
52632.0,STARLINK-3995,PAYLOAD,2024-01-22 09:24:32,15.08837348,0.0001265,53.2182,158.538,99.1644,260.9492,5.8246e-05,6.39e-06,0.0,0 STARLINK-3995,1 52632U 22052AL  24022.39204529  .00000639  00000-0  58246-4 0  9990,2 52632  53.2182 158.5380 0001265  99.1644 260.9492 15.08837348 94022,6917.888,95.438,540.629,538.878,0.0
52632.0,STARLINK-3995,PAYLOAD,2024-01-22 14:10:42,15.08839516,0.0001315,53.2183,157.6476,96.7379,263.3763,7.8043e-05,9.54e-06,0.0,0 STARLINK-3995,1 52632U 22052AL  24022.59076392  .00000954  00000-0  78043-4 0  9994,2 52632  53.2183 157.6476 0001315  96.7379 263.3763 15.08839516 93681,6917.882,95.438,540.657,538.837,0.0
52632.0,STARLINK-3995,PAYLOAD,2024-01-23 15:36:51,15.08854486,0.0001271,53.2165,152.8949,89.8716,270.2422,8.5335e-05,1.071e-05,0.0,0 STARLINK-3995,1 52632U 22052AL  24023.65059539  .00001071  00000-0  85335-4 0  9999,2 52632  53.2165 152.8949 0001271  89.8716 270.2422 15.08854486 94214,6917.836,95.437,540.58,538.822,0.0
52632.0,STARLINK-3995,PAYLOAD,2024-01-24 12:16:53,15.08838072,0.0001435,53.217,149.0287,103.0969,257.0183,7.6644e-05,9.32e-06,0.0,0 STARLINK-3995,1 52632U 22052AL  24024.51172707  .00000932  00000-0  76644-4 0  9996,2 52632  53.2170 149.0287 0001435 103.0969 257.0183 15.08838072 94348,6917.886,95.438,540.744,538.759,0.0
52632.0,STARLINK-3995,PAYLOAD,2024-01-24 13:52:16,15.08840074,0.0001433,53.2164,148.7307,96.6172,263.4983,4.9189e-05,4.95e-06,0.0,0 STARLINK-3995,1 52632U 22052AL  24024.57796326  .00000495  00000-0  49189-4 0  9999,2 52632  53.2164 148.7307 0001433  96.6172 263.4983 15.08840074 93984,6917.88,95.438,540.736,538.754,0.0
52632.0,STARLINK-3995,PAYLOAD,2024-01-25 12:07:39,15.08847674,0.0001941,53.2173,144.5725,123.968,236.1497,-0.00028973,-4.897e-05,0.0,0 STARLINK-3995,1 52632U 22052AL  24025.50531962 -.00004897  00000-0 -28973-3 0  9995,2 52632  53.2173 144.5725 0001941 123.9680 236.1497 15.08847674 94491,6917.857,95.437,541.065,538.379,0.0
52632.0,STARLINK-3995,PAYLOAD,2024-01-25 13:43:03,15.08843563,0.0001563,53.2177,144.2744,106.3229,253.7935,-1.1424e-05,-4.7e-06,0.0,0 STARLINK-3995,1 52632U 22052AL  24025.57156754 -.00000470  00000-0 -11424-4 0  9991,2 52632  53.2177 144.2744 0001563 106.3229 253.7935 15.08843563 94133,6917.869,95.437,540.816,538.653,0.0
52632.0,STARLINK-3995,PAYLOAD,2024-01-25 15:18:26,15.08842329,0.0001395,53.2171,143.9741,83.3261,276.7889,-1.986e-05,-6.04e-06,0.0,0 STARLINK-3995,1 52632U 22052AL  24025.63780912 -.00000604  00000-0 -19860-4 0  9998,2 52632  53.2171 143.9741 0001395  83.3261 276.7889 15.08842329 94517,6917.873,95.437,540.703,538.773,0.0
52632.0,STARLINK-3995,PAYLOAD,2024-01-26 13:33:49,15.08855908,0.000115,53.2161,139.8166,87.7354,272.377,3.6317e-05,2.9e-06,0.0,0 STARLINK-3995,1 52632U 22052AL  24026.56516166  .00000290  00000-0  36317-4 0  9994,2 52632  53.2161 139.8166 0001150  87.7354 272.3770 15.08855908 94283,6917.832,95.437,540.492,538.901,0.0
52632.0,STARLINK-3995,PAYLOAD,2024-01-26 15:09:13,15.08820757,0.0001486,53.2163,139.5176,96.9054,263.2107,0.0006307,9.759e-05,0.0,0 STARLINK-3995,1 52632U 22052AL  24026.63141134  .00009759  00000-0  63070-3 0  9995,2 52632  53.2163 139.5176 0001486  96.9054 263.2107 15.08820757 94663,6917.939,95.439,540.832,538.776,0.0
52632.0,STARLINK-3995,PAYLOAD,2024-01-27 13:24:37,15.08841622,0.0001342,53.2168,135.3535,91.5007,268.6139,0.0001508,2.113e-05,0.0,0 STARLINK-3995,1 52632U 22052AL  24027.55877026  .00002113  00000-0  15080-3 0  9998,2 52632  53.2168 135.3535 0001342  91.5007 268.6139 15.08841622 94434,6917.875,95.437,540.669,538.812,0.0
52632.0,STARLINK-3995,PAYLOAD,2024-01-28 11:40:03,15.08828086,0.000176,53.2182,131.193,58.5939,301.5225,-0.0001062,-1.977e-05,0.0,0 STARLINK-3995,1 52632U 22052AL  24028.48615046 -.00001977  00000-0 -10620-3 0  9997,2 52632  53.2182 131.1930 0001760  58.5939 301.5225 15.08828086 94942,6917.917,95.438,540.999,538.564,0.0
52632.0,STARLINK-3995,PAYLOAD,2024-01-28 13:15:26,15.08828491,0.0001778,53.2179,130.8954,60.242,299.8749,-0.00010562,-1.968e-05,0.0,0 STARLINK-3995,1 52632U 22052AL  24028.55239034 -.00001968  00000-0 -10562-3 0  9999,2 52632  53.2179 130.8954 0001778  60.2420 299.8749 15.08828491 94584,6917.916,95.438,541.011,538.551,0.0
52632.0,STARLINK-3995,PAYLOAD,2024-01-29 11:30:48,15.08850988,0.0001507,53.2191,126.7275,66.7936,293.3215,0.00012029,1.628e-05,0.0,0 STARLINK-3995,1 52632U 22052AL  24029.47972821  .00001628  00000-0  12029-3 0  9990,2 52632  53.2191 126.7275 0001507  66.7936 293.3215 15.08850988 95091,6917.847,95.437,540.754,538.669,0.0
52632.0,STARLINK-3995,PAYLOAD,2024-01-30 11:21:35,15.0884354,0.0001514,53.2172,122.2582,123.3697,236.744,8.1511e-05,1.01e-05,0.0,0 STARLINK-3995,1 52632U 22052AL  24030.47333264  .00001010  00000-0  81511-4 0  9992,2 52632  53.2172 122.2582 0001514 123.3697 236.7440 15.08843540 95248,6917.87,95.437,540.782,538.687,0.0
52632.0,STARLINK-3995,PAYLOAD,2024-01-30 12:56:59,15.08841135,0.0001361,53.2169,121.9636,125.5658,234.5461,0.00010185,1.333e-05,0.0,0 STARLINK-3995,1 52632U 22052AL  24030.53957398  .00001333  00000-0  10185-3 0  9995,2 52632  53.2169 121.9636 0001361 125.5658 234.5461 15.08841135 94887,6917.877,95.437,540.683,538.8,0.0
52632.0,STARLINK-3995,PAYLOAD,2024-01-31 11:12:23,15.08849735,0.0001553,53.2175,117.8073,102.6002,257.5164,-0.00010195,-1.911e-05,0.0,0 STARLINK-3995,1 52632U 22052AL  24031.46693489 -.00001911  00000-0 -10195-3 0  9991,2 52632  53.2175 117.8073 0001553 102.6002 257.5164 15.08849735 95021,6917.851,95.437,540.79,538.641,0.0
52632.0,STARLINK-3995,PAYLOAD,2024-01-31 15:58:33,15.08791053,0.0002137,53.2178,116.9129,100.0486,260.0748,0.00077554,0.0001206,0.0,0 STARLINK-3995,1 52632U 22052AL  24031.66566863  .00012060  00000-0  77554-3 0  9995,2 52632  53.2178 116.9129 0002137 100.0486 260.0748 15.08791053 95423,6918.03,95.441,541.373,538.417,0.0
52632.0,STARLINK-3995,PAYLOAD,2024-02-01 11:03:10,15.08833321,0.0001631,53.2174,113.3425,108.6711,251.4459,1.7101e-05,-1.6e-07,0.0,0 STARLINK-3995,1 52632U 22052AL  24032.46054142 -.00000016  00000-0  17101-4 0  9998,2 52632  53.2174 113.3425 0001631 108.6711 251.4459 15.08833321 95543,6917.901,95.438,540.894,538.637,0.0
52632.0,STARLINK-3995,PAYLOAD,2024-02-01 14:13:57,15.08834317,0.0001732,53.218,112.7483,112.2462,247.8714,2.545e-05,1.17e-06,0.0,0 STARLINK-3995,1 52632U 22052AL  24032.59302105  .00000117  00000-0  25450-4 0  9994,2 52632  53.2180 112.7483 0001732 112.2462 247.8714 15.08834317 95193,6917.898,95.438,540.961,538.565,0.0
52632.0,STARLINK-3995,PAYLOAD,2024-02-02 10:53:57,15.08842554,0.0001689,53.2185,108.8824,106.6685,253.4493,9.1402e-05,1.167e-05,0.0,0 STARLINK-3995,1 52632U 22052AL  24033.45413507  .00001167  00000-0  91402-4 0  9995,2 52632  53.2185 108.8824 0001689 106.6685 253.4493 15.08842554 95692,6917.873,95.437,540.906,538.569,0.0
